NORAD_CAT_ID,OBJECT_NAME,OBJECT_TYPE,EPOCH,MEAN_MOTION,ECCENTRICITY,INCLINATION,RA_OF_ASC_NODE,ARG_OF_PERICENTER,MEAN_ANOMALY,BSTAR,MEAN_MOTION_DOT,MEAN_MOTION_DDOT,TLE_LINE0,TLE_LINE1,TLE_LINE2,SEMIMAJOR_AXIS,PERIOD,APOGEE,PERIGEE,DECAYED
53908.0,STARLINK-5057,PAYLOAD,2023-02-13 10:37:41,15.088411,8.55e-05,53.2196,303.2431,92.039,268.07,-0.00013624,-2.455e-05,0.0,0 STARLINK-5057,1 53908U 22119Y   23044.44283824 -.00002455  00000-0 -13624-3 0  9995,2 53908  53.2196 303.2431 0000855  92.0390 268.0700 15.08841100 22285,6917.877,95.437,540.334,539.151,0.0
53908.0,STARLINK-5057,PAYLOAD,2023-02-13 16:59:14,15.08829584,8.85e-05,53.2192,302.0533,78.9133,281.1959,3.1005e-08,-2.87e-06,0.0,0 STARLINK-5057,1 53908U 22119Y   23044.70780525 -.00000287  00000-0  31005-7 0  9991,2 53908  53.2192 302.0533 0000885  78.9133 281.1959 15.08829584 22321,6917.912,95.438,540.389,539.165,0.0
53908.0,STARLINK-5057,PAYLOAD,2023-02-13 23:20:45,15.08842292,4.12e-05,53.2197,300.8637,52.5919,307.5111,9.961e-05,1.298e-05,0.0,0 STARLINK-5057,1 53908U 22119Y   23044.97275451  .00001298  00000-0  99610-4 0  9992,2 53908  53.2197 300.8637 0000412  52.5919 307.5111 15.08842292 22361,6917.873,95.437,540.023,539.453,0.0
53908.0,STARLINK-5057,PAYLOAD,2023-02-14 10:28:27,15.08846054,0.0001055,53.2188,298.7841,75.394,284.7169,6.5002e-05,7.47e-06,0.0,0 STARLINK-5057,1 53908U 22119Y   23045.43643345  .00000747  00000-0  65002-4 0  9991,2 53908  53.2188 298.7841 0001055  75.3940 284.7169 15.08846054 22857,6917.862,95.437,540.457,538.997,0.0
53908.0,STARLINK-5057,PAYLOAD,2023-02-14 16:50:01,15.08831245,9.62e-05,53.22,297.5954,68.0318,292.0776,0.0001604,2.265e-05,0.0,0 STARLINK-5057,1 53908U 22119Y   23045.70140081  .00002265  00000-0  16040-3 0  9994,2 53908  53.2200 297.5954 0000962  68.0318 292.0776 15.08831245 22478,6917.907,95.438,540.438,539.107,0.0
53908.0,STARLINK-5057,PAYLOAD,2023-02-15 02:22:18,15.08842216,8.56e-05,53.2181,295.8089,71.3803,288.7282,0.00031605,4.746e-05,0.0,0 STARLINK-5057,1 53908U 22119Y   23046.09882876  .00004746  00000-0  31605-3 0  9992,2 53908  53.2181 295.8089 0000856  71.3803 288.7282 15.08842216 22535,6917.874,95.437,540.331,539.146,0.0
53908.0,STARLINK-5057,PAYLOAD,2023-02-15 21:26:56,15.0884539,9.67e-05,53.219,292.2413,81.3136,278.7966,0.00016354,2.316e-05,0.0,0 STARLINK-5057,1 53908U 22119Y   23046.89371174  .00002316  00000-0  16354-3 0  9999,2 53908  53.2190 292.2413 0000967  81.3136 278.7966 15.08845390 23074,6917.864,95.437,540.398,539.06,0.0
53908.0,STARLINK-5057,PAYLOAD,2023-02-15 23:02:19,15.08854287,0.0001117,53.2179,291.9446,89.4318,270.6802,6.9103e-05,8.13e-06,0.0,0 STARLINK-5057,1 53908U 22119Y   23046.95994822  .00000813  00000-0  69103-4 0  9998,2 53908  53.2179 291.9446 0001117  89.4318 270.6802 15.08854287 23088,6917.837,95.437,540.474,538.929,0.0
53908.0,STARLINK-5057,PAYLOAD,2023-02-16 16:31:35,15.08838539,0.0001373,53.2182,288.671,89.1624,270.9526,-4.9054e-05,-1.068e-05,0.0,0 STARLINK-5057,1 53908U 22119Y   23047.68860141 -.00001068  00000-0 -49054-4 0  9993,2 53908  53.2182 288.6710 0001373  89.1624 270.9526 15.08838539 22773,6917.885,95.438,540.7,538.8,0.0
53908.0,STARLINK-5057,PAYLOAD,2023-02-17 02:03:53,15.08841704,0.0001138,53.2184,286.8871,71.5357,288.5759,-6.5335e-05,-1.328e-05,0.0,0 STARLINK-5057,1 53908U 22119Y   23048.08604002 -.00001328  00000-0 -65335-4 0  9999,2 53908  53.2184 286.8871 0001138  71.5357 288.5759 15.08841704 23255,6917.875,95.437,540.527,538.953,0.0
53908.0,STARLINK-5057,PAYLOAD,2023-02-17 16:22:23,15.08830531,0.0001083,53.2174,284.21,89.5962,270.5154,-0.00014722,-2.629e-05,0.0,0 STARLINK-5057,1 53908U 22119Y   23048.68221249 -.00002629  00000-0 -14722-3 0  9991,2 53908  53.2174 284.2100 0001083  89.5962 270.5154 15.08830531 22920,6917.909,95.438,540.524,539.025,0.0
53908.0,STARLINK-5057,PAYLOAD,2023-02-17 21:08:32,15.08833932,0.0001046,53.2177,283.3172,93.7597,266.3515,-0.00012758,-2.317e-05,0.0,0 STARLINK-5057,1 53908U 22119Y   23048.88093110 -.00002317  00000-0 -12758-3 0  9998,2 53908  53.2177 283.3172 0001046  93.7597 266.3515 15.08833932 23374,6917.899,95.438,540.488,539.04,0.0
53908.0,STARLINK-5057,PAYLOAD,2023-02-18 08:16:13,15.08843798,0.0001168,53.2186,281.2401,100.7804,259.332,-0.00010008,-1.88e-05,0.0,0 STARLINK-5057,1 53908U 22119Y   23049.34460389 -.00001880  00000-0 -10008-3 0  9996,2 53908  53.2186 281.2401 0001168 100.7804 259.3320 15.08843798 23020,6917.869,95.437,540.542,538.926,0.0
53908.0,STARLINK-5057,PAYLOAD,2023-02-18 14:37:46,15.08835397,0.0001052,53.2176,280.0484,75.9951,284.1158,6.6436e-05,7.7e-06,0.0,0 STARLINK-5057,1 53908U 22119Y   23049.60956775  .00000770  00000-0  66436-4 0  9996,2 53908  53.2176 280.0484 0001052  75.9951 284.1158 15.08835397 23486,6917.894,95.438,540.487,539.032,0.0
53908.0,STARLINK-5057,PAYLOAD,2023-02-19 14:28:33,15.08831109,9.6e-05,53.218,275.5892,79.5594,280.5506,0.00024523,3.616e-05,0.0,0 STARLINK-5057,1 53908U 22119Y   23050.60316480  .00003616  00000-0  24523-3 0  9993,2 53908  53.2180 275.5892 0000960  79.5594 280.5506 15.08831109 23634,6917.908,95.438,540.437,539.108,0.0
53908.0,STARLINK-5057,PAYLOAD,2023-02-19 16:03:56,15.08837672,0.000124,53.218,275.2916,80.6994,279.4138,0.00014323,1.992e-05,0.0,0 STARLINK-5057,1 53908U 22119Y   23050.66940409  .00001992  00000-0  14323-3 0  9995,2 53908  53.2180 275.2916 0001240  80.6994 279.4138 15.08837672 23221,6917.888,95.438,540.61,538.895,0.0
53908.0,STARLINK-5057,PAYLOAD,2023-02-20 00:00:50,15.08885761,0.0001656,53.218,273.8047,107.7241,252.3932,-0.00037263,-6.221e-05,0.0,0 STARLINK-5057,1 53908U 22119Y   23051.00058735 -.00006221  00000-0 -37263-3 0  9996,2 53908  53.2180 273.8047 0001656 107.7241 252.3932 15.08885761 23276,6917.741,95.435,540.751,538.46,0.0
53908.0,STARLINK-5057,PAYLOAD,2023-02-20 07:57:47,15.08849952,0.0001305,53.2181,272.3176,76.831,283.2828,0.00011091,1.478e-05,0.0,0 STARLINK-5057,1 53908U 22119Y   23051.33179539  .00001478  00000-0  11091-3 0  9996,2 53908  53.2181 272.3176 0001305  76.8310 283.2828 15.08849952 23323,6917.85,95.437,540.618,538.812,0.0
53908.0,STARLINK-5057,PAYLOAD,2023-02-21 14:10:06,15.08844141,0.0001229,53.2171,266.6669,89.0731,271.0402,-5.3586e-05,-1.141e-05,0.0,0 STARLINK-5057,1 53908U 22119Y   23052.59035606 -.00001141  00000-0 -53586-4 0  9996,2 53908  53.2171 266.6669 0001229  89.0731 271.0402 15.08844141 23512,6917.868,95.437,540.583,538.883,0.0
53908.0,STARLINK-5057,PAYLOAD,2023-02-21 20:31:39,15.08840013,0.0001326,53.217,265.4774,91.1449,268.9695,-8.1113e-05,-1.579e-05,0.0,0 STARLINK-5057,1 53908U 22119Y   23052.85531956 -.00001579  00000-0 -81113-4 0  9996,2 53908  53.2170 265.4774 0001326  91.1449 268.9695 15.08840013 23976,6917.88,95.438,540.663,538.828,0.0
53908.0,STARLINK-5057,PAYLOAD,2023-02-22 14:00:54,15.08833436,0.0001447,53.2174,262.207,86.2747,273.841,-6.1133e-05,-1.261e-05,0.0,0 STARLINK-5057,1 53908U 22119Y   23053.58396382 -.00001261  00000-0 -61133-4 0  9997,2 53908  53.2174 262.2070 0001447  86.2747 273.8410 15.08833436 24088,6917.9,95.438,540.766,538.764,0.0
53908.0,STARLINK-5057,PAYLOAD,2023-02-22 20:22:27,15.08831737,0.0001366,53.2173,261.0188,80.0047,280.1099,-6.0635e-05,-1.253e-05,0.0,0 STARLINK-5057,1 53908U 22119Y   23053.84892597 -.00001253  00000-0 -60635-4 0  9992,2 53908  53.2173 261.0188 0001366  80.0047 280.1099 15.08831737 24120,6917.906,95.438,540.716,538.826,0.0
53908.0,STARLINK-5057,PAYLOAD,2023-02-23 13:51:41,15.08834809,0.0001285,53.2168,257.7461,84.1464,275.9675,8.211e-05,1.019e-05,0.0,0 STARLINK-5057,1 53908U 22119Y   23054.57756063  .00001019  00000-0  82110-4 0  9990,2 53908  53.2168 257.7461 0001285  84.1464 275.9675 15.08834809 23818,6917.896,95.438,540.65,538.872,0.0
53908.0,STARLINK-5057,PAYLOAD,2023-02-23 20:13:13,15.08839656,0.0001239,53.216,256.5569,82.6724,277.4408,0.00013139,1.804e-05,0.0,0 STARLINK-5057,1 53908U 22119Y   23054.84251615  .00001804  00000-0  13139-3 0  9999,2 53908  53.2160 256.5569 0001239  82.6724 277.4408 15.08839656 24274,6917.881,95.438,540.604,538.889,0.0
53908.0,STARLINK-5057,PAYLOAD,2023-02-23 23:23:59,15.08848144,0.0001368,53.216,255.962,78.8301,281.2845,6.1754e-05,6.95e-06,0.0,0 STARLINK-5057,1 53908U 22119Y   23054.97499425  .00000695  00000-0  61754-4 0  9990,2 53908  53.2160 255.9620 0001368  78.8301 281.2845 15.08848144 23871,6917.855,95.437,540.667,538.774,0.0
53908.0,STARLINK-5057,PAYLOAD,2023-02-24 13:42:28,15.08830737,0.0001381,53.2167,253.2863,85.3924,274.7225,4.2647e-05,3.91e-06,0.0,0 STARLINK-5057,1 53908U 22119Y   23055.57116727  .00000391  00000-0  42647-4 0  9991,2 53908  53.2167 253.2863 0001381  85.3924 274.7225 15.08830737 24382,6917.909,95.438,540.729,538.818,0.0
53908.0,STARLINK-5057,PAYLOAD,2023-02-24 20:04:01,15.08834142,0.0001367,53.2167,252.0973,84.3411,275.7737,6.5978e-05,7.62e-06,0.0,0 STARLINK-5057,1 53908U 22119Y   23055.83612571  .00000762  00000-0  65978-4 0  9992,2 53908  53.2167 252.0973 0001367  84.3411 275.7737 15.08834142 24423,6917.898,95.438,540.709,538.818,0.0
53908.0,STARLINK-5057,PAYLOAD,2023-02-25 05:36:20,15.08835864,0.0001322,53.2161,250.3131,84.4237,275.6906,1.1783e-05,-1e-06,0.0,0 STARLINK-5057,1 53908U 22119Y   23056.23356757 -.00000100  00000-0  11783-4 0  9990,2 53908  53.2161 250.3131 0001322  84.4237 275.6906 15.08835864 24487,6917.893,95.438,540.673,538.843,0.0
53908.0,STARLINK-5057,PAYLOAD,2023-02-25 19:54:48,15.0883949,0.0001368,53.2169,247.6368,87.4668,272.6481,-2.7362e-05,-7.23e-06,0.0,0 STARLINK-5057,1 53908U 22119Y   23056.82972785 -.00000723  00000-0 -27362-4 0  9992,2 53908  53.2169 247.6368 0001368  87.4668 272.6481 15.08839490 24155,6917.882,95.438,540.693,538.801,0.0
53908.0,STARLINK-5057,PAYLOAD,2023-02-26 13:24:02,15.08831328,0.0001387,53.217,244.3649,87.7309,272.3842,0.00019982,2.893e-05,0.0,0 STARLINK-5057,1 53908U 22119Y   23057.55836702  .00002893  00000-0  19982-3 0  9997,2 53908  53.2170 244.3649 0001387  87.7309 272.3842 15.08831328 24687,6917.907,95.438,540.731,538.812,0.0
